IRIDIUM 36 [-]          
1 24967U 97056C   23236.56600538  .00000431  00000+0  14055-3 0  9999
2 24967  86.3922  91.1961 0002134  81.0990 279.0448 14.36370228357065
IRIDIUM 39 [-]          
1 25042U 97069D   23235.19389973  .00000701  00000+0  18565-3 0  9993
2 25042  86.3949 135.4817 0018931   8.5169 351.6352 14.47318848353121
IRIDIUM 38 [-]          
1 25043U 97069E   23235.20620478  .00000544  00000+0  17749-3 0  9992
2 25043  86.4019 152.2558 0004004 107.9410 252.2224 14.36850529350833
IRIDIUM 42 [-]          
1 25077U 97077A   23235.32464695  .00000466  00000+0  15625-3 0  9992
2 25077  86.4029 157.5603 0002773  94.7739 265.3774 14.35169231345941
IRIDIUM 44 [-]          
1 25078U 97077B   23235.10254227  .00000530  00000+0  16558-3 0  9995
2 25078  86.3999 141.3847 0003957  69.6677 290.4947 14.38950184348194
IRIDIUM 45 [-]          
1 25104U 97082A   23234.39917692  .00010121  00000+0  67650-3 0  9999
2 25104  86.3816   1.9635 0182119 242.3690 115.8949 14.94193680352213
IRIDIUM 24 [-]          
1 25105U 97082B   23236.59905851  .00000632  00000+0  19148-3 0  9993
2 25105  86.3960   0.8382 0013712 103.1681 257.1049 14.40694731348026
IRIDIUM 51 [-]          
1 25262U 98018A   23234.41254101  .00017857  00000+0  10288-2 0  9993
2 25262  86.3978  12.6270 0169593 198.8020 160.6904 15.00837455346523
